StoreName,StoreType,StoreOpeningDate,Address,City,State,Zipcode,Country,Region,Manager Name
The Unique Shop,Exclusive,2017-03-26,964 Lauren Summit Lake Terrybury  GU 70845,Marktown,North Carolina,48412,Central Af,North,Jennifer
The Enchanted Closet,SMB,1996-10-13,3177 Suzanne Shores Andrewside  VI 08128,Lake Maryton,California,72953,Liechtenst,South,Spencer
The Enchanted Oasis,MBO,2012-08-10,84827 Brian Path Apt. 145 New Jose  OH 58465,Richardbury,California,53642,Belarus,East,Kenneth
The Timeless Essentials,MBO,1977-02-16,918 Oliver Mews Apt. 951 South Cristina  MH 83827,South Jamesmouth,Louisiana,86901,Heard Isla,North,Sean
The Vintage Vault,Outlet Stores,1976-05-30,USCGC Gill FPO AE 78161,West Sheila,Hawaii,93976,Congo,East,Thomas
The Eclectic Marvels,SMB,2005-09-10,5195 Kevin Spring Port Davidfurt  VI 02206,New Nicholas,Montana,93957,Ethiopia,East,Patricia
The Polished Marvels,Exclusive,1983-08-02,818 Reed Glens Angelicachester  AL 96147,Lake Tylerland,New Mexico,01867,Maldives,West,Sabrina
The Urban Shop,Outlet Stores,1997-07-16,5243 Kirby Path Christopherberg  VT 06748,West Derrickhaven,Iowa,81872,Namibia,West,Joshua
The Cozy Haven,SMB,1974-03-01,24101 Wells Cape Kristintown  NY 11114,New Toddfurt,Alabama,83448,Ecuador,West,Andrew
The Harmony Shoppe,Exclusive,1980-01-08,161 Guzman Summit Suite 523 West Mirandafurt  NJ 81749,East Jennifer,Texas,62886,Anguilla,North,Bonnie
The Stylish Shop,Exclusive,2010-11-29,43890 Edwin Gateway Apt. 662 Simmonsfort  VT 66458,Lake Thomasfurt,Maine,68786,United Sta,West,Michelle
The Stylish Shop,MBO,1977-01-25,Unit 8170 Box 0081 DPO AE 84947,Jimmyland,New York,50217,United Sta,West,Hector
The Polished Boutique,Exclusive,2015-02-18,1993 Reyes Crossing Samuelville  GU 42136,Davidfort,Indiana,72132,Greenland,South,Brenda
The Luxe Shoppe,Outlet Stores,2008-12-24,54529 Angela Manors Daychester  VI 87082,Reneeshire,Idaho,91522,Faroe Isla,West,Vanessa
The Majestic Reflections,SMB,2001-11-05,105 Levine Ford Deborahtown  LA 64317,Turnerberg,Louisiana,44572,United Sta,North,Tim
The Timeless Elegance,SMB,2004-07-26,06380 Megan Views Suite 593 New Dominic  NJ 35231,Johnnychester,New Hampshire,42715,Central Af,East,Kelly
The Unique Hub,Outlet Stores,1970-05-20,9725 Steven Course Suite 099 Ashleyberg  WA 78424,South Thomas,Oregon,20264,Tuvalu,East,Robert
The Dapper Treasures,Outlet Stores,1990-04-29,Unit 3267 Box 7652 DPO AE 56603,Lake Ryanview,Texas,97816,Cyprus,North,Leah
The Polished Essentials,Exclusive,1981-05-13,445 Robert Knolls West Edward  WI 58999,Port Caitlinville,Michigan,57689,Timor-Lest,South,Bryan
The Rustic Oasis,Outlet Stores,2002-11-14,71342 Rebecca Summit Suite 882 Amberville  PR 67129,Lake Whitney,Nebraska,73919,Haiti,East,Joseph
The Modern Oasis,SMB,2001-09-28,9297 Lisa Glens Suite 064 Brianton  TX 62844,East Debrastad,Oregon,37575,Iceland,East,Isaac
The Urban Vault,Outlet Stores,2002-12-18,8203 Obrien Creek Michaelview  MH 58201,Jasonchester,Ohio,96551,Brunei Dar,East,Melvin
The Golden Merchant,Exclusive,1980-02-13,57081 Anthony Walks Suite 353 East Nicoleberg  HI 18420,Christinaborough,Iowa,05137,Grenada,West,Lisa
The Vintage Boutique,SMB,2020-01-28,33633 Gardner Glens Webbberg  CO 24315,East Robertchester,Georgia,41256,United Sta,South,Laura
The Polished Cabinet,Outlet Stores,1985-07-20,PSC 8704  Box 2232 APO AA 78194,Johnstad,Vermont,75671,Cape Verde,North,Brian
The Serene Perfection,Outlet Stores,2010-02-14,7147 Ryan Skyway Apt. 799 East Jamesmouth  ID 81097,West Ryanville,Vermont,49226,Armenia,West,Scott
The Urban Avenue,Exclusive,2005-01-31,040 Travis Fort Daisyton  VI 54615,Brooketown,Oregon,10797,Cambodia,South,Richard
The Elegant Finds,Outlet Stores,2023-11-23,50205 Wu Way Port Alan  MD 25331,Wilsonborough,Maryland,27041,Guam,North,James
The Classy Vault,Outlet Stores,2003-04-29,267 Amanda Heights Aliciabury  NY 07982,Crystalmouth,Florida,51923,Vanuatu,North,Darrell
The Urban Shop,MBO,1981-02-05,7751 Patterson Expressway Apt. 616 Barkerland  AK 94422,South Sarah,Florida,48088,Kuwait,South,William
The Shimmer Boutique,SMB,1991-03-17,73424 Kevin Crest Apt. 757 East Hannahport  CT 79742,West Tammybury,Kentucky,62488,Belgium,East,Mark
The Majestic Sanctuary,MBO,1982-09-25,81094 Jeffrey Stravenue East Jeffreyfort  WV 27824,South Isabellashire,Maine,28914,Cote d'Ivo,East,Willie
The Rustic Treasures,Outlet Stores,2000-11-11,PSC 7624  Box 0229 APO AP 16287,Ericstad,California,07621,Cyprus,North,Kimberly
The Polished Sanctuary,Outlet Stores,2014-04-14,0787 Claudia Rapids Christophermouth  DE 29835,East Devinberg,North Carolina,99104,Suriname,North,Joshua
The Eclectic Hub,MBO,1972-11-10,6470 Mia Mountains Jorgemouth  MA 66940,West Ashley,Colorado,02339,Kyrgyz Rep,West,Marcus
The Harmony Marketplace,Outlet Stores,2001-07-25,67221 Davis Motorway North Daisyburgh  NV 06540,New Jamieside,Iowa,72209,Bolivia,North,James
The Whimsy Creations,Outlet Stores,1989-02-26,0691 Selena Spurs East Ryan  CA 39204,Erikaside,New Jersey,00532,Antigua an,East,Jessica
The Harmony Reflections,SMB,2012-04-10,Unit 1513 Box 8148 DPO AA 90272,North Timothy,South Dakota,02434,Finland,South,Tina
The Blissful Essentials,Exclusive,2005-01-08,30519 Soto Fords Suite 295 New Deborahburgh  MH 54396,Lake Codyville,Minnesota,42973,Italy,South,Timothy
The Cozy Shop,Exclusive,2024-10-31,6126 Jessica Ford Apt. 333 New John  OK 66516,Brianhaven,North Carolina,27455,Cape Verde,East,Jorge
The Cozy Closet,SMB,2016-02-12,011 Joshua Underpass Suite 985 Boothberg  IA 41233,Carolynland,Michigan,27309,Uzbekistan,West,Ryan
The Trendy Emporium,Exclusive,2020-12-27,USCGC Ramsey FPO AA 73064,Lake Jenniferbury,Arkansas,13216,Somalia,West,James
The Radiant Shop,SMB,1982-07-18,9882 Stephen Shoals Apt. 238 Thomasmouth  KY 26695,West Samuel,Alabama,99348,Kiribati,East,Adrienne
The Happy Avenue,MBO,1997-10-22,53188 Cooper Ramp Suite 562 Lake Alexandra  SD 82421,North Mary,Maryland,06345,Mozambique,North,Cynthia
The Unique Creations,Exclusive,1975-04-18,936 Connor Fords Apt. 533 West Jason  CT 23274,Beanstad,Kansas,03267,Tajikistan,West,Janice
The Urban Oasis,Outlet Stores,1971-04-26,439 Monique Station Woodsville  KY 95880,East Edwardport,Tennessee,59568,Cameroon,South,Ashley
The Harmony Oasis,MBO,1982-06-02,942 Buchanan Knolls Lake Jamesberg  AZ 29155,Yatesstad,Virginia,90016,Honduras,West,Dillon
The Purely Perfection,Outlet Stores,1986-08-17,46396 John Gateway Amandaland  NJ 72460,Port Rachelstad,North Carolina,98110,Ecuador,West,Melissa
The Modern Shoppe,Exclusive,2021-04-09,0791 Steven Burgs Apt. 468 East Pamela  OH 31773,Robertview,Wisconsin,67158,Oman,East,Kim
The Blissful Vault,SMB,2007-09-13,238 Bryan Forge Apt. 823 Denisestad  KS 37837,Victorview,Kansas,12339,Papua New ,West,Paul
The Stylish Corner,MBO,2016-01-28,52701 Velasquez Curve Carterton  NH 76578,Port Michael,Maine,39795,Trinidad a,East,Allison
The Serene Shop,SMB,2015-03-02,796 Shelby Terrace Suite 418 Ginamouth  MI 08725,North Colton,New York,82554,Egypt,West,Victoria
The Stylish Cabinet,Exclusive,2004-05-18,81997 Jennifer Hills North Kimberly  VT 02855,Carpenterside,Washington,78602,Iraq,North,Allen
The Eclectic Cabinet,Exclusive,2004-06-21,3962 Wiley Square Suite 531 Lake Robert  AL 94126,Leeview,South Dakota,78622,Uzbekistan,North,Nicholas
The Modern Shop,MBO,1984-03-19,98597 Vargas Cliffs Suite 321 Port Jamesmouth  IL 18983,Weberstad,Hawaii,12656,French Sou,South,Matthew
The Elegant Closet,SMB,2011-03-31,447 Dunn Manors Mooreburgh  GA 81965,South Victoria,Delaware,40867,El Salvado,West,Michele
The Classy Avenue,SMB,1971-02-06,6454 Troy Row Lake Johnside  FL 05285,North Paul,Alaska,62817,Palestinia,West,Jill
The Trendy Hub,Outlet Stores,1979-10-03,PSC 2776  Box 0574 APO AA 56474,Port Paige,Virginia,48441,New Caledo,West,Tara
The Blissful Finds,SMB,2013-08-29,PSC 0314  Box 7970 APO AA 89598,Leslieview,West Virginia,94192,French Pol,East,Tammy
The Unique Haven,MBO,1986-02-18,681 Hughes Heights Apt. 566 Stephensview  DC 87310,West Johnny,Florida,71851,Germany,North,Nicholas
The Cozy Haven,Exclusive,1980-05-03,19432 Guerrero Trail Apt. 325 Danielport  NY 08536,Rogershaven,Alaska,17131,Eritrea,South,Tina
The Timeless Essentials,MBO,2024-08-14,90704 Katherine Knoll West Carlosstad  NE 82541,South Danielshire,Montana,70222,Austria,South,Darryl
The Luxe Vault,Exclusive,1971-01-20,440 Prince Way East Kristinaberg  AR 37898,Fryeborough,New Mexico,71257,Greece,West,David
The Stylish Boutique,SMB,1992-07-17,2144 Kelsey Prairie Apt. 031 Daniellefurt  MO 07974,Penningtonbury,Delaware,00520,Turks and ,West,Katherine
The Timeless Loft,Outlet Stores,1999-07-11,42759 Stephen Tunnel Joelhaven  DE 20867,Timothyview,South Carolina,55073,Algeria,South,Wendy
The Happy Enclave,MBO,1975-08-06,90030 Rivera Port Port Cristianview  HI 26249,New Amberborough,Hawaii,44683,Italy,South,Kimberly
The Stylish Shop,MBO,2020-08-16,89697 Williams Key Padillaborough  DE 26386,Port Connie,Louisiana,56450,Romania,South,Nicholas
The Rustic Closet,MBO,2023-03-25,49182 Davidson Roads Kylemouth  MS 76296,Jenniferchester,Arizona,20229,Ireland,East,Michael
The Majestic Sanctuary,MBO,1976-12-29,USCGC Martin FPO AP 38995,Wardburgh,New York,12965,Guyana,East,Ian
The Luxe Shoppe,Outlet Stores,2000-03-19,367 Johnny Lakes Lake Teresa  VI 82166,Charleshaven,Missouri,30445,Faroe Isla,South,Ana
The Unique Cabinet,Outlet Stores,2015-09-15,7869 Rachel Cliffs Apt. 122 Lake Allenchester  MT 14085,Gomezfort,Delaware,79898,Rwanda,West,David
The Modern Treasures,Outlet Stores,2010-12-31,23772 Gary Ferry Amandafurt  WV 62249,Obrienport,Maine,78794,Paraguay,East,Scott
The Rustic Perfection,Outlet Stores,2006-10-30,Unit 2495 Box 5983 DPO AP 52568,Davisland,Louisiana,75620,Chad,North,Christine
The Happy Perfection,Exclusive,2011-11-17,586 Evans Run Davidberg  NH 59868,Lake Sophia,Florida,09595,Libyan Ara,South,Jamie
The Enchanted Closet,SMB,2014-09-13,3869 Carl Shores Suite 461 Lake Margaret  GU 50324,Brownmouth,Minnesota,06050,Guadeloupe,West,Miranda
The Classy Nook,Exclusive,1979-10-31,3478 Kristen Park New Linda  LA 87777,Billyland,Louisiana,27347,Georgia,West,Angelica
The Artisan Haven,MBO,2006-03-09,PSC 6292  Box 3120 APO AP 33471,Burnsfurt,Wyoming,70661,Martinique,South,Gary
The Artisan Perfection,Exclusive,1977-10-02,33033 Franklin Neck East Dawn  MN 68492,Ortegastad,Alabama,09685,Madagascar,South,Russell
The Blissful Loft,Outlet Stores,1980-12-06,941 Hunter Plain Apt. 729 West Jerrystad  NV 13238,Thomasfort,Iowa,10153,Madagascar,East,Eric
The Dapper Finds,SMB,2011-04-30,98170 Rachel Forest Apt. 682 Jonesberg  ME 58736,East Steven,California,06840,Saint Hele,South,Tammy
The Blissful Finds,Exclusive,1987-10-19,900 Michelle Dam Apt. 789 Lanceburgh  OK 17030,North Dan,Maine,43358,Jersey,West,Daniel
The Stylish Shop,Exclusive,2003-01-04,0927 Amanda Corners Vasquezburgh  CO 86716,Olsonmouth,Massachusetts,70479,Kuwait,East,Daniel
The Classy Cabinet,Outlet Stores,1997-10-03,8547 Lisa Roads Churchtown  FL 55455,Angelashire,New Jersey,55388,Kazakhstan,East,Christine
The Happy Avenue,MBO,1996-03-16,2580 Brittany Trafficway North Daisyville  NJ 05714,Susanview,Rhode Island,97082,Vanuatu,South,Kelly
The Chic Loft,SMB,1974-05-14,1857 Rivera Courts Juliestad  PR 54752,Lake Juanville,Arizona,09592,Kiribati,North,Brandon
The Vintage Closet,Exclusive,1975-08-29,07854 Perez Run Suite 039 Smithmouth  TX 36764,New Jennifer,Minnesota,08849,Bahamas,East,Keith
The Polished Enclave,Exclusive,2013-10-01,77801 Nichols Villages Suite 667 North Susanberg  OH 31094,Baileyview,Virginia,06936,United Ara,West,Kimberly
The Shimmer Nook,SMB,1984-01-08,645 Robin Well Suite 712 Chrischester  NJ 90814,Ashleehaven,Tennessee,58285,Zambia,East,Victoria
The Blissful Nook,Exclusive,2002-01-09,5029 Torres Glen Port Sarahbury  IA 38594,Lake Cole,West Virginia,28214,Latvia,West,Alejandro
The Shimmer Quest,Outlet Stores,2016-07-22,80711 Torres Points Apt. 018 East Mark  VA 87255,Mitchellport,Utah,13612,New Caledo,North,Jonathan
The Blissful Avenue,Outlet Stores,2010-03-26,6943 Rebecca Isle Tranport  AZ 47465,Perryborough,North Carolina,96804,Saint Vinc,North,Sean
The Polished Closet,Exclusive,1988-01-03,02729 Joy Stream Suite 137 Johnburgh  TN 33940,Whiteside,Rhode Island,90032,Bosnia and,East,Bridget
The Classy Vault,Exclusive,1979-05-20,5158 Christine Spur Apt. 345 Stewartview  LA 88886,Cookside,Missouri,07688,Nicaragua,East,Emily
The Happy Loft,Exclusive,2024-08-07,PSC 4504  Box 5662 APO AE 24844,West Michaelmouth,Iowa,93094,Netherland,South,Wesley
The Polished Merchant,Exclusive,1994-12-08,30260 Bailey Cove North Anthonyville  IL 89130,North Alexander,Ohio,38222,United Sta,North,Travis
The Polished Nook,MBO,1973-09-06,32101 Jones Wall Port Melissa  PW 41839,Andreabury,Kansas,81867,Czech Repu,North,Amber
The Vintage Essentials,SMB,1987-05-12,26766 Catherine Port Hamiltonton  UT 55033,Clarktown,Arkansas,59666,Finland,South,Rachel
The Serene Hub,SMB,2009-03-17,90674 Kristin Cove Jacksontown  HI 95804,South Julia,New Jersey,19209,Portugal,South,Roberto
The Artisan Avenue,Outlet Stores,1987-02-21,032 Jacobs Courts East Dominique  KY 57837,Lake Jameston,Washington,89829,Marshall I,North,Cheryl
The Purely Treasures,MBO,1971-06-24,774 Renee Wells Port Ashley  PA 60315,West Patriciafort,Arkansas,74129,Palau,North,Laura
The Urban Shoppe,Exclusive,2008-10-25,USNS Riley FPO AA 40106,Parkerbury,Kentucky,05634,United Sta,South,Tammie
The Eclectic Boutique,MBO,2024-10-26,3781 Nichols Burg Robbinshaven  TX 86745,South Amy,Alaska,41051,Puerto Ric,South,Steve
The Vintage Deals,SMB,1984-06-22,7633 Foley River Suite 252 Kimburgh  AS 34820,South John,Florida,83141,Puerto Ric,North,Todd
The Eclectic Reflections,Outlet Stores,2008-01-10,9774 Andrea Ford Apt. 132 West Timothy  KS 49980,Lake Ralphburgh,Massachusetts,03052,Turks and ,South,Sara
The Purely Loft,Exclusive,2022-05-27,2622 Young Plaza East Joel  IL 77261,Martinside,Kansas,20548,Oman,East,Dennis
The Majestic Cabinet,Outlet Stores,2008-02-07,698 John Ramp Matthewview  PR 43526,West Jeffrey,Massachusetts,18508,Greenland,East,Clifford
The Enchanted Creations,MBO,2016-09-20,9389 Michelle Street Shelleyview  GA 40178,North Shawnville,Washington,33004,Yemen,South,David
The Artisan Closet,SMB,1985-07-07,4638 Richardson Loop Suite 291 North Josephtown  AZ 49364,East Joe,Alaska,64860,Tuvalu,North,Patricia
The Purely Essentials,Exclusive,2017-11-05,515 Chelsea Path Suite 696 West Kennethville  GA 51007,Brownchester,North Carolina,31166,Bangladesh,West,Samantha
The Dapper Sanctuary,Outlet Stores,1973-02-14,29516 Diaz Key Apt. 776 Howellfurt  MT 59258,East Crystalbury,Oregon,50856,French Pol,North,Christopher
The Polished Oasis,MBO,2000-01-21,12341 Higgins Camp South Melissastad  RI 23311,North Heidiville,Tennessee,70359,Malta,South,Tracy
The Enchanted Boutique,Outlet Stores,1977-01-18,9366 Timothy Hills Port Stephanieville  AZ 56067,East Danny,Kansas,32849,Brunei Dar,West,Christopher
The Artisan Haven,SMB,1984-05-29,13106 Johnny Lights Angelastad  MS 13792,Port William,Iowa,22836,Lao People,South,Elaine
The Harmony Oasis,SMB,1991-04-26,72497 Miranda Mill Taylorview  TX 25446,Lake David,Kansas,72640,Pitcairn I,East,Daniel
The Blissful Enclave,SMB,1972-05-03,54054 Rodriguez Pines Bryanfurt  NV 35279,Mullenmouth,Georgia,38880,Albania,East,Billy
The Dapper Avenue,SMB,2014-12-07,81887 Galvan Trail Suite 263 Craigfurt  NC 33168,East Allisonborough,Texas,27480,Comoros,East,Kristen
The Whimsy Enclave,MBO,2019-01-08,292 David Mews Kennethborough  LA 43742,Aguilarville,Alabama,87331,Zambia,North,Peter
The Elegant Haven,MBO,2012-03-16,946 Andrew Spur Suite 825 New Patrickville  VA 41244,Lake Danielleview,Kentucky,83219,United Ara,West,Joshua
The Happy Marvels,MBO,2014-02-24,53511 Christopher Passage Port Patricia  MH 09067,Alexanderland,Maryland,93408,Romania,South,Scott
The Timeless Elegance,Outlet Stores,2011-10-15,5793 Blair Ridge Apt. 333 Fowlerburgh  KS 58585,New Georgemouth,West Virginia,22130,Netherland,South,Lori
The Dapper Treasures,SMB,1998-06-25,8578 Velazquez Vista Kariside  NM 38947,Jenniferview,Illinois,53159,Mozambique,West,Jeffrey
The Urban Quest,Exclusive,2000-11-25,646 Simpson Walk Suite 578 North Tomborough  LA 51781,Hallstad,Indiana,71039,Bouvet Isl,East,Kelly
The Vintage Boutique,Exclusive,1986-04-11,3446 Matthew Turnpike Apt. 980 Port Michaelhaven  PR 35415,Davidtown,North Carolina,46209,Jordan,West,David
The Whimsy Loft,MBO,2020-08-06,PSC 7003  Box 0413 APO AP 74250,West Rodney,South Carolina,70649,Serbia,South,Michael
The Vintage Treasures,SMB,1986-11-03,633 Jacob Shoals Kyleville  AS 63334,New David,South Dakota,89065,Serbia,South,Alicia
The Serene Avenue,Exclusive,1994-02-01,60191 Jay Brooks Jenniferburgh  MH 10042,Stanleyview,Colorado,00798,Myanmar,North,Hannah
The Unique Loft,MBO,1990-05-19,USCGC Roy FPO AE 53409,Tranhaven,California,93119,Kenya,South,John
The Artisan Perfection,SMB,2002-06-15,656 Lewis Ports Apt. 440 Meadowsstad  FM 64722,Lewiston,Tennessee,99211,British Vi,East,Alexandra
The Trendy Hub,Outlet Stores,1993-10-04,0842 Simpson Highway Apt. 436 Brownshire  MI 85045,Port Deborah,Minnesota,01757,Central Af,North,Shelly
The Harmony Finds,Exclusive,1976-02-17,08237 Wilson Way East Mirandaberg  IL 55005,West Stevenmouth,Delaware,75573,Norfolk Is,North,Zachary
The Polished Creations,Outlet Stores,2012-02-24,137 Brittany Points Apt. 119 Georgeport  NE 48120,Sandramouth,Georgia,90651,United Sta,West,Julie
The Cozy Reflections,Exclusive,1983-08-01,1673 Brown Harbor North Mackenzie  ME 87092,Armstrongside,Nevada,66951,Eritrea,West,Stephen
The Rustic Deals,SMB,1971-10-03,537 Campbell Trail New Andreaberg  SD 62786,West Brittanyville,Maine,84222,Guyana,North,Cynthia
The Shimmer Sanctuary,SMB,1990-11-10,611 Ross Common Thompsonshire  MA 88454,Zacharymouth,Florida,33605,Pitcairn I,West,Dawn
The Rustic Essentials,Outlet Stores,2011-10-25,66242 Johnson Divide Apt. 911 New Joseph  FM 12559,Melissatown,Mississippi,04254,Namibia,West,Hannah
The Serene Enclave,SMB,2010-07-10,606 Michelle Shoal Apt. 341 East Marthashire  MN 88177,West Laurenburgh,Louisiana,26081,Guinea,West,Emily
The Rustic Shop,SMB,2023-10-20,PSC 5570  Box 1240 APO AA 17188,Josephberg,Utah,54167,Korea,West,Drew
The Vintage Nook,Outlet Stores,1971-01-29,40473 Matthew Stream Jeffreystad  UT 62945,East Michaelmouth,Colorado,17755,Solomon Is,West,Elizabeth
The Harmony Treasures,Outlet Stores,1978-08-05,1079 Jessica Springs Suite 171 Lindsayville  MO 78838,New Sergioland,Maryland,90959,Tunisia,East,Nicole
The Cozy Deals,SMB,1974-09-23,5724 Patricia Point Apt. 540 East Amy  NV 80690,South Laurenville,North Dakota,11914,Malawi,South,Betty
The Modern Hub,Outlet Stores,2008-02-27,8294 Boyd Dale Apt. 181 Klineside  ME 24724,Lake Kevinbury,Louisiana,31680,Falkland I,South,Erik
The Stylish Vault,MBO,2008-06-25,349 Jesse Mount Port Johnland  VI 84674,East Levi,Texas,20519,Nauru,East,Peter
The Happy Enclave,Exclusive,1979-01-28,26272 Jonathan Wells Apt. 485 Mitchellside  TX 74122,Mendozastad,North Carolina,53825,Kazakhstan,South,Patrick
The Rustic Loft,Exclusive,1982-09-28,0702 Park Trace West Robertmouth  HI 01507,Margaretbury,Montana,09989,Vietnam,East,Susan
The Elegant Shoppe,SMB,1973-07-21,467 Tran Gardens Mendozaberg  PA 92327,Romanstad,Kentucky,66933,Dominican ,West,James
The Enchanted Essentials,SMB,1993-10-29,5478 Kyle Pike Suite 415 South Scottland  MN 12676,Smithland,Hawaii,25457,British In,West,Tyrone
The Chic Hub,Exclusive,1972-02-29,8043 Bell Landing East Jaredton  MN 19231,North Juan,Georgia,87755,Saint Bart,East,Rachel
The Happy Oasis,Exclusive,1989-12-10,674 Anthony Valley Apt. 048 Bellmouth  IN 71126,Cannonland,Hawaii,77518,Turks and ,West,Francisco
The Whimsy Treasures,Outlet Stores,2023-10-11,7139 Jessica Lodge East David  UT 86539,South Jameston,South Carolina,97068,Uruguay,North,Elizabeth
The Modern Sanctuary,MBO,2018-05-03,297 Adams Valley East Williamburgh  VI 79688,Brianport,Oregon,78028,Grenada,West,Joshua
The Classy Quest,MBO,2023-11-05,USNS Morgan FPO AE 16838,Jackport,Delaware,27147,Malawi,North,John
The Cozy Shoppe,MBO,2007-03-24,PSC 6221  Box 1233 APO AE 60405,East Kimberly,Vermont,69858,Uruguay,North,Jillian
The Whimsy Haven,SMB,2004-03-30,6410 Steven Forest Trevorhaven  IN 35096,West Matthewfort,Ohio,31031,American S,North,Christopher
The Elegant Elegance,Exclusive,2017-03-28,90533 Cathy Ports Suite 084 West Morgan  ND 99947,East Meghanmouth,North Dakota,02685,United Sta,North,Gregory
The Artisan Sanctuary,Outlet Stores,1989-10-15,Unit 7856 Box 7608 DPO AA 14479,South Tommyfort,Kansas,18725,Christmas ,West,Alexandra
The Enchanted Quest,Outlet Stores,1993-08-17,5386 Mason Village Suite 184 New Stephen  MI 64917,West Andrew,North Carolina,54423,United Sta,North,Timothy
The Elegant Quest,Exclusive,1971-03-27,PSC 0332  Box 7963 APO AE 17865,West Jose,Colorado,87863,Pitcairn I,West,David
The Rustic Treasures,Exclusive,2006-12-05,0709 Hayden Mountains Apt. 697 Rowemouth  MI 19527,New Cynthiafurt,Wisconsin,57573,Dominica,West,Jodi
The Rustic Hub,Outlet Stores,2011-08-25,0868 Newton Spur New Paul  GA 42579,Jessicaland,Delaware,45461,Jordan,West,Andrew
The Whimsy Marvels,MBO,2020-07-14,5450 Ferrell Flat South Elizabeth  MH 64817,West Melissaborough,South Carolina,68461,Slovakia (,East,Richard
The Happy Loft,Exclusive,1983-04-08,912 Meghan Lights Port Angelaton  IA 21808,Keithside,Connecticut,18628,Botswana,West,Jennifer
The Modern Perfection,Outlet Stores,2021-11-29,0832 Mccullough Alley South Tyler  MA 46938,West Barbara,West Virginia,61241,Saint Luci,East,Mathew
The Majestic Enclave,MBO,1971-01-04,284 Dustin Run Apt. 175 Connorton  WI 72397,Jessicatown,Alabama,91158,Switzerlan,North,Emily
The Golden Deals,Outlet Stores,2004-12-10,83572 Hernandez Avenue South Rachel  MT 45740,Mcguirestad,Texas,17005,Hong Kong,North,Edward
The Golden Marketplace,Exclusive,1982-11-28,611 Adam Trail East Scott  MT 95994,Tracyfort,Wyoming,35407,South Geor,South,Matthew
The Rustic Hub,SMB,2019-03-16,57857 Patty Wells Thomasstad  IN 98129,Johnsonhaven,South Dakota,94909,French Gui,North,Stephen
The Eclectic Hub,Outlet Stores,1992-12-19,33159 Carolyn Heights Apt. 494 Pennyberg  WI 78547,Justinchester,Virginia,61633,Sweden,West,James
The Whimsy Finds,Outlet Stores,1995-07-06,128 Chang Junctions Suite 963 Pachecoborough  MI 47873,Reidborough,Arizona,62080,Azerbaijan,South,Harold
The Polished Deals,Outlet Stores,2016-06-30,9173 Hicks Isle New Brian  ND 89584,Leetown,Utah,53155,Namibia,West,Robert
The Urban Sanctuary,Outlet Stores,1977-11-11,50797 Daniel Curve Apt. 720 Port Terri  OH 85197,Karaville,Colorado,72548,Heard Isla,South,Rachel
The Timeless Finds,Outlet Stores,2022-09-16,1077 April Land Lake Norma  AS 66158,Lake Jerry,Kentucky,02286,Tuvalu,West,Chris
The Purely Loft,Exclusive,2024-03-21,6451 Deborah Islands Suite 565 New Melanie  HI 71922,Ashleyburgh,Idaho,57279,Lebanon,East,George
The Purely Treasures,MBO,2002-04-27,9380 Massey Roads Suite 460 Dylanborough  KS 16714,Port Stephaniemouth,Georgia,65689,Norway,West,Jody
The Luxe Creations,MBO,2003-02-05,382 Anderson Court Port Kathleen  MO 63143,West Clayton,Vermont,71155,Zambia,South,Susan
The Shimmer Essentials,MBO,1981-01-29,75764 Danny Pines Charlesfurt  NC 42312,North Brandonfurt,Colorado,33367,Northern M,South,Scott
The Modern Shop,SMB,2013-11-27,9141 Grimes Hills Cummingsside  NM 01300,Adamton,New Jersey,61866,Congo,West,Dylan
The Blissful Nook,SMB,1989-03-19,0505 Jasmine Terrace Jacksonmouth  MD 03636,Mccarthyton,Illinois,06792,Vanuatu,East,Sherry
The Harmony Closet,Outlet Stores,2021-11-18,74158 Michelle Canyon Suite 307 South Jacobstad  IL 23119,Bellmouth,Illinois,13657,Kyrgyz Rep,North,Edward
The Timeless Finds,SMB,2002-03-13,79521 Dawn Land Antonioton  OR 17867,Lake Donna,Hawaii,72331,Antigua an,South,Patrick
The Artisan Treasures,MBO,2017-03-28,073 Moore Mews Suite 904 South Donald  ND 15450,Graymouth,Wisconsin,61127,Hungary,West,Aaron
The Enchanted Marvels,MBO,1992-08-26,95490 Murray Mountain Apt. 805 Andersonport  NE 01010,East Christopherstad,Ohio,53947,Bosnia and,South,Andrew
The Timeless Nook,Exclusive,1978-06-11,54414 Lori Falls Apt. 948 Aprilmouth  KY 82708,New John,North Dakota,39778,Cambodia,East,Christopher
The Golden Perfection,SMB,2021-08-01,082 Jackson Groves South Williamfurt  WA 46364,Cartermouth,Colorado,99475,Puerto Ric,North,Kimberly
The Rustic Treasures,MBO,1999-10-13,673 Thomas Plaza Apt. 402 Travisville  VT 76796,Jeremiahmouth,South Carolina,29476,Saint Vinc,West,Adam
The Radiant Avenue,Outlet Stores,2017-09-16,91462 Owen Burgs Apt. 099 Shafferville  KS 85790,Christopherland,Indiana,87245,Antigua an,East,Yesenia
The Chic Merchant,Exclusive,2019-03-17,16263 Carter Stravenue Hernandezmouth  IL 08257,New Jodi,Georgia,20450,Syrian Ara,East,Gina
The Artisan Marvels,Outlet Stores,2020-06-13,USNV Davis FPO AP 62972,Port Michelleport,Virginia,71691,Greece,North,Timothy
The Elegant Treasures,Exclusive,1987-06-12,142 Jack Lock Suite 147 South David  IA 44582,North Jeffrey,Iowa,25164,Papua New ,West,Lauren
The Purely Enclave,MBO,1982-05-12,92454 Cook Plaza Suite 634 East Matthewmouth  FM 95390,East Robert,New Mexico,42768,Madagascar,South,Colleen
The Happy Nook,SMB,1995-12-14,32697 Jeremiah Key Suite 147 Hamptontown  GA 95878,Ashleyview,Delaware,20497,Syrian Ara,East,Jeffrey
The Polished Treasures,MBO,2013-04-23,1561 Ashley Port Waremouth  LA 32691,Thomasville,North Dakota,86258,Guam,South,Chris
The Golden Reflections,Exclusive,2022-12-03,979 Matthew Pass South Carrie  TN 33046,Katherineside,Minnesota,99862,British In,North,Regina
The Harmony Quest,Exclusive,1972-06-30,38879 Romero Crest Apt. 500 South Vanessahaven  GU 86852,West Martin,Tennessee,08988,Equatorial,West,David
The Chic Marvels,Outlet Stores,2008-04-11,391 Michael Plains Apt. 822 South Elizabeth  NY 35573,North Christopherview,Arizona,22392,Lao People,East,Amy
The Dapper Enclave,MBO,1977-01-14,0989 Barbara Port Apt. 960 Joshuaview  MN 02838,Castroview,Missouri,67691,Burundi,South,Kathy
The Chic Nook,Exclusive,1997-09-04,4389 Russell Land Johnmouth  WY 81097,Morrisport,Georgia,68863,Sweden,South,Dale
The Elegant Nook,Outlet Stores,1975-12-29,434 Christine Branch North Jamesfurt  MN 83714,East Donald,Missouri,46394,Singapore,East,Michael
The Shimmer Nook,Exclusive,1995-01-23,5402 Robert Roads Suite 188 Petersonhaven  SC 44895,West Kentbury,Vermont,12027,United Ara,West,Harold
The Happy Marvels,SMB,1996-01-22,593 Hanson Plains Rileychester  UT 57968,Garciahaven,Florida,31014,Cayman Isl,West,Aaron
The Serene Boutique,SMB,1973-10-23,611 Garcia Tunnel Apt. 725 East Dawnton  WA 76015,Samanthaport,North Dakota,21984,Turkmenist,South,Jonathan
